TRANSIT 16 [?]          
1 02807U 67048A   22230.21570377  .00000098  00000+0  13704-3 0  9997
2 02807  89.6544  34.3454 0021063  27.3375 146.3513 13.50320529719603
TRANSIT 17 [?]          
1 02965U 67092A   22230.25853137  .00000086  00000+0  11027-3 0  9996
2 02965  89.2385 118.6903 0048166 153.8291 320.7611 13.53032517707410
TRANSIT 18 [?]          
1 03133U 68012A   22229.20016633  .00000069  00000+0  88644-4 0  9993
2 03133  90.0034 271.6238 0077185  85.6118 342.7030 13.51158934681806
NNSS 19 [?]             
1 04507U 70067A   22230.26254289  .00000080  00000+0  99971-4 0  9999
2 04507  89.9200 238.8591 0171451 204.5184 154.7745 13.50834514558897
NNSS O-20 [?]           
1 06909U 73081A   22229.21810062  .00000102  00000+0  92236-4 0  9998
2 06909  89.8167 276.3079 0158548 114.7375 247.0382 13.70689188637337
TRANSAT [?]             
1 10457U 77106A   22229.30126140  .00000060  00000+0  78649-4 0  9995
2 10457  89.6814 120.5703 0027130  90.9992  27.6301 13.48683914203869
NOVA I [?]              
1 12458U 81044A   22229.27094410  .00000065  00000+0  13234-3 0  9997
2 12458  89.8861 107.0256 0013336 204.4265 277.8867 13.23068713991381
NOVA 3 [?]              
1 15362U 84110A   22229.45097477  .00000041  00000+0  76816-4 0  9997
2 15362  90.0946  67.5507 0033680  75.0077 348.0394 13.22836815826571
OSCAR 30 [?]            
1 15935U 85066A   22229.16153039  .00000032  00000+0  45358-4 0  9996
2 15935  90.1738  78.9717 0166968 267.2473 212.9078 13.35760691802504
OSCAR 24 [?]            
1 15936U 85066B   22230.14240813  .00000054  00000+0  85358-4 0  9992
2 15936  90.1689  70.9398 0167486 270.2181 211.2253 13.35621242804779
POLAR BEAR [?]          
1 17070U 86088A   22229.49427167  .00000059  00000+0  49738-4 0  9990
2 17070  89.5614 234.8039 0039151 176.3255 294.6195 13.74874794793062
OSCAR 27 [?]            
1 18361U 87080A   22229.46426728  .00000076  00000+0  11092-3 0  9996
2 18361  90.3301  36.2487 0106340  98.7083 262.6127 13.44569485712517
OSCAR 29 [?]            
1 18362U 87080B   22229.59513317  .00000113  00000+0  17230-3 0  9994
2 18362  90.3313  36.5862 0107812 118.3888 260.0487 13.44157004712115
OSCAR 23 [?]            
1 19070U 88033A   22230.20449771  .00000073  00000+0  13597-3 0  9999
2 19070  90.3360 338.7424 0188356 312.3608 110.1925 13.27525388661911
OSCAR 32 [?]            
1 19071U 88033B   22229.36009333  .00000079  00000+0  14718-3 0  9993
2 19071  90.3360 338.8017 0186473 302.5169 119.7633 13.27705263661634
NOVA 11 [?]             
1 19223U 88052A   22229.51511581  .00000007  00000+0 -39935-5 0  9995
2 19223  89.9708  80.7239 0032181 115.6131 305.9887 13.22748448649082
OSCAR 25 [?]            
1 19419U 88074A   22229.47341321  .00000072  00000+0  10660-3 0  9997
2 19419  90.0063  17.9106 0098277 106.7514 317.0032 13.42300216663626
OSCAR 31 [?]            
1 19420U 88074B   22230.18040771  .00000097  00000+0  15051-3 0  9990
2 19420  90.0074  18.0932 0096476  99.0395  73.0362 13.42310805664091
